{
  "type": "FeatureCollection",
  "features": [
    {
      "type": "Feature",
      "properties": {
        "norad_id": 34761,
        "name": "COSMOS 2251 DEB",
        "group": "cosmos-2251-debris",
        "lat": -29.29947830277686,
        "lon": 0.6263765485860392,
        "alt_km": 764.072448660464,
        "timestamp": "2025-12-08T21:31:05.061611+00:00",
        "meta_object_name": "COSMOS 2251 DEB",
        "meta_object_id": "1993-036AAF",
        "meta_epoch": "2025-12-08T11:38:30.539616",
        "meta_mean_motion": 14.38027343,
        "meta_eccentricity": 0.00362315,
        "meta_inclination": 74.0293,
        "meta_ra_of_asc_node": 10.6321,
        "meta_arg_of_pericenter": 46.0624,
        "meta_mean_anomaly": 314.3509,
        "meta_ephemeris_type": 0,
        "meta_classification_type": "U",
        "meta_norad_cat_id": 34761,
        "meta_element_set_no": 999,
        "meta_rev_at_epoch": 87588,
        "meta_bstar": 0.00095400654,
        "meta_mean_motion_dot": 2.884e-05,
        "meta_mean_motion_ddot": 0,
        "tle_line1": "1 34761U 93036AAF 25342.48507569  .00002884  00000+0  95401-3 0  9995",
        "tle_line2": "2 34761  74.0293  10.6321 0036231  46.0624 314.3509 14.38027343875884"
      },
      "geometry": {
        "type": "Point",
        "coordinates": [
          0.6263765485860392,
          -29.29947830277686
        ]
      }
    },
    {
      "type": "Feature",
      "properties": {
        "norad_id": 34784,
        "name": "COSMOS 2251 DEB",
        "group": "cosmos-2251-debris",
        "lat": -62.52461761244779,
        "lon": -174.816990241136,
        "alt_km": 706.5456880061201,
        "timestamp": "2025-12-08T21:31:05.061622+00:00",
        "meta_object_name": "COSMOS 2251 DEB",
        "meta_object_id": "1993-036AAM",
        "meta_epoch": "2025-12-08T07:14:38.956128",
        "meta_mean_motion": 14.60748391,
        "meta_eccentricity": 0.00495654,
        "meta_inclination": 74.0073,
        "meta_ra_of_asc_node": 332.8501,
        "meta_arg_of_pericenter": 143.4924,
        "meta_mean_anomaly": 216.9638,
        "meta_ephemeris_type": 0,
        "meta_classification_type": "U",
        "meta_norad_cat_id": 34784,
        "meta_element_set_no": 999,
        "meta_rev_at_epoch": 88470,
        "meta_bstar": 0.00074489151,
        "meta_mean_motion_dot": 3.668e-05,
        "meta_mean_motion_ddot": 0,
        "tle_line1": "1 34784U 93036AAM 25342.30183977  .00003668  00000+0  74489-3 0  9998",
        "tle_line2": "2 34784  74.0073 332.8501 0049565 143.4924 216.9638 14.60748391884702"
      },
      "geometry": {
        "type": "Point",
        "coordinates": [
          -174.816990241136,
          -62.52461761244779
        ]
      }
    },
    {
      "type": "Feature",
      "properties": {
        "norad_id": 34790,
        "name": "COSMOS 2251 DEB",
        "group": "cosmos-2251-debris",
        "lat": 26.54937174543782,
        "lon": 62.4128630761659,
        "alt_km": 876.7730999042051,
        "timestamp": "2025-12-08T21:31:05.061632+00:00",
        "meta_object_name": "COSMOS 2251 DEB",
        "meta_object_id": "1993-036AAT",
        "meta_epoch": "2025-12-08T04:39:28.211328",
        "meta_mean_motion": 14.24605557,
        "meta_eccentricity": 0.01007268,
        "meta_inclination": 74.0545,
        "meta_ra_of_asc_node": 251.89,
        "meta_arg_of_pericenter": 314.4823,
        "meta_mean_anomaly": 196.6536,
        "meta_ephemeris_type": 0,
        "meta_classification_type": "U",
        "meta_norad_cat_id": 34790,
        "meta_element_set_no": 999,
        "meta_rev_at_epoch": 86508,
        "meta_bstar": 0.0010779742,
        "meta_mean_motion_dot": 2.614e-05,
        "meta_mean_motion_ddot": 0,
        "tle_line1": "1 34790U 93036AAT 25342.19407652  .00002614  00000+0  10780-2 0  9994",
        "tle_line2": "2 34790  74.0545 251.8900 0100726 314.4823 196.6536 14.24605557865088"
      },
      "geometry": {
        "type": "Point",
        "coordinates": [
          62.4128630761659,
          26.54937174543782
        ]
      }
    },
    {
      "type": "Feature",
      "properties": {
        "norad_id": 34792,
        "name": "COSMOS 2251 DEB",
        "group": "cosmos-2251-debris",
        "lat": 26.92790211029745,
        "lon": -174.62649636350193,
        "alt_km": 709.124761617727,
        "timestamp": "2025-12-08T21:31:05.061642+00:00",
        "meta_object_name": "COSMOS 2251 DEB",
        "meta_object_id": "1993-036AAV",
        "meta_epoch": "2025-12-08T15:04:57.105408",
        "meta_mean_motion": 14.55902439,
        "meta_eccentricity": 0.00125405,
        "meta_inclination": 74.0174,
        "meta_ra_of_asc_node": 177.5114,
        "meta_arg_of_pericenter": 271.3071,
        "meta_mean_anomaly": 151.9137,
        "meta_ephemeris_type": 0,
        "meta_classification_type": "U",
        "meta_norad_cat_id": 34792,
        "meta_element_set_no": 999,
        "meta_rev_at_epoch": 87590,
        "meta_bstar": 0.0014060834,
        "meta_mean_motion_dot": 6.157e-05,
        "meta_mean_motion_ddot": 0,
        "tle_line1": "1 34792U 93036AAV 25342.62843872  .00006157  00000+0  14061-2 0  9994",
        "tle_line2": "2 34792  74.0174 177.5114 0012540 271.3071 151.9137 14.55902439875907"
      },
      "geometry": {
        "type": "Point",
        "coordinates": [
          -174.62649636350193,
          26.92790211029745
        ]
      }
    },
    {
      "type": "Feature",
      "properties": {
        "norad_id": 34793,
        "name": "COSMOS 2251 DEB",
        "group": "cosmos-2251-debris",
        "lat": 43.28772556434675,
        "lon": -86.85557272190799,
        "alt_km": 723.5269768046464,
        "timestamp": "2025-12-08T21:31:05.061652+00:00",
        "meta_object_name": "COSMOS 2251 DEB",
        "meta_object_id": "1993-036AAW",
        "meta_epoch": "2025-12-08T05:18:52.943040",
        "meta_mean_motion": 14.38633452,
        "meta_eccentricity": 0.00501054,
        "meta_inclination": 74.0031,
        "meta_ra_of_asc_node": 258.7139,
        "meta_arg_of_pericenter": 54.0287,
        "meta_mean_anomaly": 96.4202,
        "meta_ephemeris_type": 0,
        "meta_classification_type": "U",
        "meta_norad_cat_id": 34793,
        "meta_element_set_no": 999,
        "meta_rev_at_epoch": 87265,
        "meta_bstar": 0.0005097631,
        "meta_mean_motion_dot": 1.559e-05,
        "meta_mean_motion_ddot": 0,
        "tle_line1": "1 34793U 93036AAW 25342.22144610  .00001559  00000+0  50976-3 0  9992",
        "tle_line2": "2 34793  74.0031 258.7139 0050105  54.0287  96.4202 14.38633452872655"
      },
      "geometry": {
        "type": "Point",
        "coordinates": [
          -86.85557272190799,
          43.28772556434675
        ]
      }
    },
    {
      "type": "Feature",
      "properties": {
        "norad_id": 34796,
        "name": "COSMOS 2251 DEB",
        "group": "cosmos-2251-debris",
        "lat": 1.4916780580713327,
        "lon": -136.02224154919705,
        "alt_km": 674.063817742378,
        "timestamp": "2025-12-08T21:31:05.061662+00:00",
        "meta_object_name": "COSMOS 2251 DEB",
        "meta_object_id": "1993-036AAZ",
        "meta_epoch": "2025-12-07T17:35:44.416608",
        "meta_mean_motion": 14.4865249,
        "meta_eccentricity": 0.01001489,
        "meta_inclination": 74.0301,
        "meta_ra_of_asc_node": 225.7308,
        "meta_arg_of_pericenter": 328.8983,
        "meta_mean_anomaly": 87.0781,
        "meta_ephemeris_type": 0,
        "meta_classification_type": "U",
        "meta_norad_cat_id": 34796,
        "meta_element_set_no": 999,
        "meta_rev_at_epoch": 87955,
        "meta_bstar": 0.001174251,
        "meta_mean_motion_dot": 4.684e-05,
        "meta_mean_motion_ddot": 0,
        "tle_line1": "1 34796U 93036AAZ 25341.73315297  .00004684  00000+0  11743-2 0  9991",
        "tle_line2": "2 34796  74.0301 225.7308 0100148 328.8983  87.0781 14.48652490879556"
      },
      "geometry": {
        "type": "Point",
        "coordinates": [
          -136.02224154919705,
          1.4916780580713327
        ]
      }
    },
    {
      "type": "Feature",
      "properties": {
        "norad_id": 34797,
        "name": "COSMOS 2251 DEB",
        "group": "cosmos-2251-debris",
        "lat": -24.569909363634913,
        "lon": -65.30695370221079,
        "alt_km": 705.2248684256774,
        "timestamp": "2025-12-08T21:31:05.061672+00:00",
        "meta_object_name": "COSMOS 2251 DEB",
        "meta_object_id": "1993-036ABA",
        "meta_epoch": "2025-12-08T02:15:30.483648",
        "meta_mean_motion": 14.42690241,
        "meta_eccentricity": 0.00721111,
        "meta_inclination": 73.9779,
        "meta_ra_of_asc_node": 108.638,
        "meta_arg_of_pericenter": 222.8023,
        "meta_mean_anomaly": 136.7506,
        "meta_ephemeris_type": 0,
        "meta_classification_type": "U",
        "meta_norad_cat_id": 34797,
        "meta_element_set_no": 999,
        "meta_rev_at_epoch": 87348,
        "meta_bstar": 0.0033221371,
        "meta_mean_motion_dot": 0.00011397,
        "meta_mean_motion_ddot": 0,
        "tle_line1": "1 34797U 93036ABA 25342.09410282  .00011397  00000+0  33221-2 0  9996",
        "tle_line2": "2 34797  73.9779 108.6380 0072111 222.8023 136.7506 14.42690241873482"
      },
      "geometry": {
        "type": "Point",
        "coordinates": [
          -65.30695370221079,
          -24.569909363634913
        ]
      }
    }
  ]
}